#dP2024  7 14  0  0  0.00000000      97 __u+U IGS20 FIT  IAC
## 2323      0.00000000   900.00000000 60505 0.0000000000000
+  116   C06C07C08C09C10C11C12C13C14C19C20C21C22C23C24C25C26
+        C27C28C29C30C32C33C34C35C36C37C38C39C40C41C42C43C44
+        C45E02E03E05E07E08E09E10E11E12E13E14E15E18E19E21E24
+        E25E26E27E30E31E33E34E36G02G03G04G05G06G07G08G09G10
+        G11G12G13G14G15G16G17G18G19G20G21G22G23G24G25G26G27
+        G28G29G30G31G32J02J03J04R01R02R03R04R05R07R08R09R11
+        R12R13R14R15R16R17R18R19R20R21R22R24R25R26  0  0  0
++         7  7  7  7  7  7  7  7  7  5  6  5  5  5  6  6  5
++         5  5  6  6  6  6  6  5  6  5  6  6  6  5  6  6  6
++         6  4  4  4  4  4  4  4  4  4  4  4  4  4  4  4  4
++         4  4  4  4  4  4  4  4  3  3  3  3  3  3  3  3  3
++         3  3  4  3  4  3  3  3  3  4  3  3  3  3  3  3  3
++         3  4  3  3  3 11 11 11  7  6  6  7  7  6  6  6  6
++         6  7  6  6  7  6  6  7  8  6  6  6  7  7  0  0  0
%c M  cc GPS ccc cccc cccc cccc cccc ccccc ccccc ccccc ccccc
%c cc cc ccc ccc cccc cccc cccc cccc ccccc ccccc ccccc ccccc
%f  1.2500000  1.025000000  0.00000000000  0.000000000000000
%f  0.0000000  0.000000000  0.00000000000  0.000000000000000
%i    0    0    0    0      0      0      0      0         0
%i    0    0    0    0      0      0      0      0         0
/* INFORMATION & ANALYSIS CENTER (IAC)            FINAL DATA
/* S/V CLOCKS ARE ALIGNED TO GNSS TIME                      
/* G:C1WC2W R:C1PC2P E:C1XC5X C:C2IC6I J:C1CC2S             
/* PCV:IGS20_2317 OL/AL:FES2004  NONE     YN ORB:CoN CLK:CoN
*  2024 07 14  1 45  0.00000000
PC06  -4605.028923  25207.975385 -33349.454535    589.055206
PC07 -16416.554914  33850.731540  18897.420743   -552.417875
PC08  -4425.030530  40748.786002  10352.944629   -311.902980
PC09   6028.828529  28962.592265 -29320.930054    -28.393326
PC10  -9439.333166  33634.279564  23564.958901    -75.256679
PC11 -25777.324561  -8647.561809  -6181.530795    661.178867
PC12 -10495.741540 -15612.774488 -20573.771836   -263.314846
PC13   -758.328291  41960.767825   5570.245457    438.715504
PC14 -15744.386554  -4575.382917  22577.002384    912.169124
PC19  19978.931362  -5173.756128 -18782.186585   -918.286778
PC20  10352.070886  11891.961155 -23019.649205   -682.909455
PC21   6644.301404 -23461.636756  13607.068503   -957.236766
PC22  18813.480086 -20333.925295  -3521.792223     59.782307
PC23 -11423.048677  13396.045551 -21641.146055   -798.477493
PC24 -14519.962913 -22917.775857  -6490.115419    881.674812
PC25 -18488.126148  -6353.070503 -19913.924712    450.869569
PC26  -2805.111304 -25595.413702  10703.588451   -319.449123
PC27    231.725920  16155.033899  22730.586770    340.415134
PC28 -17521.421070  10859.545578  18809.661368    262.248623
PC29  27811.938540   1666.345613  -1628.331500    307.875743
PC30  19143.476401  12996.003837  15578.943422   -131.351686
PC32  -6528.048916  23517.748931 -13502.275575   -672.544066
PC33 -19910.031013   5133.671949  18852.504181   -961.281179
PC34 -20524.919926 -12336.022905 -14355.201113    476.576302
PC35  17482.880063 -11387.794299 -18533.388217    313.760815
PC36  18335.481170   6551.210950  20022.930925    135.507910
PC37   2233.211651  25672.794665 -10723.716894   -923.846983
PC38  -9486.979695  36713.366211  18634.944576    167.062393
PC39 -11954.799078  20904.330393 -34541.170337     -9.140714
PC40 -24166.334887  28741.174070  18869.469077    -80.085301
PC41 -19081.230408  19862.213877   4463.067882   -944.342370
PC42  -8994.216148 -13500.362846  22747.330045   -452.766491
PC43 -27807.440857  -2343.289814    666.218684     78.741724
PC44   -681.785907 -16290.466231 -22666.244094    532.266425
PC45  11610.458028 -12920.572951  21840.963897   -104.372139
PE02   7276.655095 -28654.962431   1340.771951    143.111257
PE03  10786.481764 -18497.528187  20441.397349   -126.777958
PE05  26313.203553 -12476.307245   5334.470363   4765.729470
PE07 -26415.664151  -1148.936459  13295.257707   -130.977117
PE08 -10682.968359 -13821.864299  23893.053767   -302.409591
PE09  26375.115444   1124.944454 -13407.756593   -514.650399
PE10  22757.515386  18837.959682  -1936.902905   -640.270278
PE11  24420.465976  11702.232285 -11960.727922   2374.405429
PE12  17836.579422  22478.385135   7227.225080  -1122.815228
PE13 -24425.836788 -12185.044943  11449.395366    -22.975751
PE14 -17740.208881 -10061.006570 -17597.576281    114.429080
PE15 -17470.662306 -22579.597137  -7822.936306   -114.625217
PE18  29630.356190  -2155.457269   7545.994902    323.147276
PE19 -12937.011939  18189.745858 -19430.243792    284.170105
PE21 -16306.464101  17172.579544 -17752.927282   -605.282880
PE24  16132.124290   5167.134194  24264.505449   -872.440621
PE25  16424.782259 -16766.487005  18045.103849      6.858345
PE26 -16703.592107   5756.036913  23746.035011    511.583442
PE27 -16164.662257  -4838.481863 -24313.750711   -399.692910
PE30  -6432.026496 -23783.974052 -16404.973863   -504.162321
PE31   6507.142304  23721.734214  16474.981214    -29.286113
PE33    -86.885138  19330.959731  22415.057034     13.730185
PE34   -391.673796 -19565.190682 -22214.550785   -122.488724
PE36  16995.430809  -5135.890913 -23687.738464   -254.604708
PG02 -22834.338211 -13769.016935   2315.971300   -399.511711
PG03 -13004.937267  -8388.698741  21441.238489    456.964370
PG04 -22143.232122  -3090.671873  14459.477203    403.263442
PG05   6355.150876  22319.581055 -13027.743229   -179.661498
PG06  -5144.648211  14382.042226  21774.046387    162.973892
PG07 -20347.964964  -1210.389909 -16743.355157    -70.508536
PG08 -13669.918588 -10158.671697 -20589.706728    273.245365
PG09 -25271.293482   7085.652612   4172.313473    272.232144
PG10  10446.092482 -21951.853359 -10087.078277    -65.562560
PG11   8059.120678  20779.675053  14517.383869   -704.347082
PG12  11793.538576  11841.429930  20374.829307   -522.065405
PG13   4289.090209  14475.419241 -22072.273540    664.386155
PG14 -13158.295792  18876.157577 -13034.324113    448.222415
PG15  14843.734210   9058.242336 -20628.304278    180.823161
PG16  -1500.876413 -24185.046994 -10665.433514   -237.390502
PG17 -20620.899776  13728.727015  10219.925383    677.984305
PG18  19539.997081    530.973633 -18064.442948   -636.238892
PG19 -13323.106982  15363.077667  16693.618988    510.090350
PG20   2211.475146  26415.943562  -2599.641392    372.789617
PG21 -21032.903781 -16777.313120  -3013.144091    109.092414
PG22  -9924.700004  24190.548375  -5063.697295    -39.276785
PG23  14427.638766 -11534.220364 -18978.290160    273.192627
PG24  21874.524932  15451.997605   -930.810809   -482.996513
PG25  15408.841615   -170.078898  21281.867532    498.484370
PG26   4434.846457 -25778.769955   3100.534153    120.375429
PG27  -1754.889877 -15550.445070 -21705.518916    -31.053012
PG28   7288.127284 -13490.738164  21677.444747   -330.208188
PG29  25529.690637  -2400.491312   7116.269314   -589.656830
PG30 -13063.296970   9347.876493 -21027.534314   -358.219011
PG31  -3477.050752 -19319.881434  17489.878496   -226.782025
PG32  18306.559298 -15557.875062  11316.323614   -612.283696
PJ02 -25360.181294  30914.413099  -8586.348990     -0.539312
PJ03 -26441.427095  22790.235310  28738.030309     -1.145672
PJ04 -31906.092427  27550.167359   4080.170229     50.589621
PR01   5454.044091 -17064.662153  18163.738610     91.302355
PR02  -8985.476488  -6367.761442  23054.507214    -23.695321
PR03 -19213.685226   7871.826517  14901.957255    103.732231
PR04 -18801.848369  17211.642962  -1103.516720    245.187965
PR05  -8402.500025  17493.584519 -16557.321302    134.510509
PR07  19362.916336  -8376.613673 -14262.609381     86.606421
PR08  18493.401542 -17484.949305   1492.323630     -5.891002
PR09  11130.183162  19212.476668  12502.879747    197.554522
PR11   6924.771493 -13590.827183  20466.196887     18.276475
PR12  -2903.374111 -24829.380622   5081.313917     42.424119
PR13  -9901.621328 -21181.605603 -10203.191079    -49.307594
PR14 -11864.893275  -3209.810757 -22336.091661     26.705502
PR15  -6373.110173  15058.518234 -19548.667573     77.898514
PR16   2962.374686  24764.768707  -5236.738025     27.339687
PR17 -23908.124437  -4219.795769   7752.173743    104.395216
PR18 -14675.714302   4660.778050  20359.812874    151.838328
PR19    -80.370980  10978.249744  23020.181416   -283.789381
PR20  19371.197133  12589.112315  10780.785019   -116.124409
PR21  23990.761722   4697.973524  -7347.187902   -117.317906
PR22  13864.799046  -5286.111108 -20723.386052     88.784195
PR24 -20195.242987 -11776.908800 -10164.541088    -63.654519
PR25  23737.468077   4897.757480  -7990.464059    -96.320969
PR26  18905.381665 -17143.541049     14.648980      4.192504
EOF
